[{"OBJECT_NAME":"STARLINK-36627","OBJECT_ID":"2026-020U","EPOCH":"2026-03-09T22:00:01.999584","MEAN_MOTION":15.68605288,"ECCENTRICITY":0.00014613,"INCLINATION":42.9998,"RA_OF_ASC_NODE":140.6895,"ARG_OF_PERICENTER":272.8635,"MEAN_ANOMALY":68.5573,"EPHEMERIS_TYPE":0,"CLASSIFICATION_TYPE":"U","NORAD_CAT_ID":67635,"ELEMENT_SET_NO":999,"REV_AT_EPOCH":604,"BSTAR":-0.018966671,"MEAN_MOTION_DOT":-0.01959305,"MEAN_MOTION_DDOT":0},{"OBJECT_NAME":"OBJECT G","OBJECT_ID":"2021-091G","EPOCH":"2026-03-09T22:32:14.470368","MEAN_MOTION":15.6545835,"ECCENTRICITY":0.00039803,"INCLINATION":97.3821,"RA_OF_ASC_NODE":287.8873,"ARG_OF_PERICENTER":325.2005,"MEAN_ANOMALY":34.8993,"EPHEMERIS_TYPE":0,"CLASSIFICATION_TYPE":"U","NORAD_CAT_ID":49321,"ELEMENT_SET_NO":999,"REV_AT_EPOCH":24605,"BSTAR":0.00046097615,"MEAN_MOTION_DOT":0.00046098,"MEAN_MOTION_DDOT":0}]
